     2.100          NAVIGATION                              RINEX VERSION / TYPE
fic2rin                                 03/24/2012 00:07:56 PGM / RUN BY / DATE
                                                            END OF HEADER
12 12  3 23  4  0  0.0  .593732111156D-04  .216004991671D-11  .000000000000D+00
     .820000000000D+02  .608125000000D+02  .449197282298D-08 -.713451594786D+00
     .316277146339D-05  .395632116124D-02  .703148543835D-05  .515353983688D+04
     .446400000000D+06  .894069671631D-07 -.204982617910D+01 -.577419996262D-07
     .978787095988D+00  .255937500000D+03 -.321368372340D-01 -.804712090917D-08
     .555737434409D-09  .100000000000D+01  .168000000000D+04  .000000000000D+00
     .240000000000D+01  .000000000000D+00 -.121071934700D-07  .820000000000D+02
     .439206000000D+06  .400000000000D+01
14 12  3 23  4  0  0.0  .197920016944D-03  .113686837722D-11  .000000000000D+00
     .850000000000D+02 -.677812500000D+02  .433732352408D-08  .185221702482D+01
    -.346079468727D-05  .616072583944D-02  .392086803913D-05  .515356630516D+04
     .446400000000D+06 -.838190317154D-07  .218075816935D+01 -.117346644402D-06
     .979068703330D+00  .312156250000D+03 -.205566601348D+01 -.819069831832D-08
    -.242510101519D-09  .100000000000D+01  .168000000000D+04  .000000000000D+00
     .240000000000D+01  .000000000000D+00 -.884756445885D-08  .850000000000D+02
     .439206000000D+06  .400000000000D+01
15 12  3 23  4  0  0.0 -.918111763895D-04  .227373675443D-12  .000000000000D+00
     .800000000000D+02 -.608437500000D+02  .519164482427D-08  .139071033589D+01
    -.309571623802D-05  .438362604473D-02  .311620533466D-05  .515378172302D+04
     .446400000000D+06 -.130385160446D-07  .209507289965D+01  .707805156708D-07
     .945906733567D+00  .310875000000D+03  .625492890404D-01 -.862928801591D-08
    -.306798493674D-09  .100000000000D+01  .168000000000D+04  .000000000000D+00
     .240000000000D+01  .000000000000D+00 -.102445483208D-07  .800000000000D+02
     .439206000000D+06  .400000000000D+01
17 12  3 23  4  0  0.0  .140845775604D-03 -.250111042988D-11  .000000000000D+00
     .730000000000D+02 -.558437500000D+02  .478984237330D-08  .224081958772D+01
    -.305287539959D-05  .727827590890D-02  .523217022419D-05  .515365097237D+04
     .446400000000D+06 -.104308128357D-06 -.990318906163D+00 -.130385160446D-06
     .962389620282D+00  .280531250000D+03 -.231811241386D+01 -.820998483597D-08
    -.460019161645D-09  .100000000000D+01  .168000000000D+04  .000000000000D+00
     .240000000000D+01  .000000000000D+00 -.107102096081D-07  .730000000000D+02
     .439206000000D+06  .400000000000D+01
18 12  3 23  4  0  0.0  .187455210835D-03  .181898940355D-11  .000000000000D+00
     .103000000000D+03  .970937500000D+02  .516271504780D-08 -.256310292755D+01
     .494346022606D-05  .129687557928D-01  .581890344620D-05  .515368013573D+04
     .446400000000D+06  .100582838058D-06  .107915599922D+01 -.147148966789D-06
     .930195461529D+00  .250656250000D+03 -.219131961280D+01 -.833034699239D-08
     .545737017852D-09  .100000000000D+01  .168000000000D+04  .000000000000D+00
     .240000000000D+01  .000000000000D+00 -.107102096081D-07  .103000000000D+03
     .439206000000D+06  .400000000000D+01
19 12  3 23  4  0  0.0 -.248224474490D-03 -.375166564481D-11  .000000000000D+00
     .740000000000D+02 -.571562500000D+02  .496806408267D-08  .141947643139D+01
    -.269711017609D-05  .803313124925D-02  .508315861225D-05  .515376125717D+04
     .446400000000D+06  .465661287308D-07 -.937080332906D+00  .968575477600D-07
     .959826947685D+00  .280062500000D+03  .142397733586D+00 -.840606443204D-08
    -.560023327219D-09  .100000000000D+01  .168000000000D+04  .000000000000D+00
     .240000000000D+01  .000000000000D+00 -.144354999065D-07  .740000000000D+02
     .439206000000D+06  .400000000000D+01
20 12  3 23  4  0  0.0  .633089803159D-04 -.113686837722D-12  .000000000000D+00
     .370000000000D+02  .945937500000D+02  .517128683343D-08 -.220029237842D+01
     .494718551636D-05  .510608113836D-02  .604800879955D-05  .515374329185D+04
     .446400000000D+06  .614672899246D-07  .102537819290D+01 -.223517417908D-07
     .930655072354D+00  .247250000000D+03  .129017931646D+01 -.844428030960D-08
     .388587614805D-09  .100000000000D+01  .168000000000D+04  .000000000000D+00
     .240000000000D+01  .000000000000D+00 -.791624188423D-08  .370000000000D+02
     .439206000000D+06  .400000000000D+01
21 12  3 23  4  0  0.0 -.212432350963D-03 -.250111042988D-11  .000000000000D+00
     .680000000000D+02  .218750000000D+01  .476341270097D-08 -.150832267208D+01
    -.298023223877D-07  .188292069361D-01  .119432806969D-04  .515364169312D+04
     .446400000000D+06  .435858964920D-06  .280510299237D-01 -.117346644402D-06
     .931985874301D+00  .128500000000D+03 -.227736467404D+01 -.793247327650D-08
    -.220009164265D-09  .100000000000D+01  .168000000000D+04  .000000000000D+00
     .240000000000D+01  .000000000000D+00 -.111758708954D-07  .680000000000D+02
     .439206000000D+06  .400000000000D+01
22 12  3 23  4  0  0.0  .143162906170D-03  .000000000000D+00  .000000000000D+00
     .510000000000D+02  .968125000000D+02  .526379068658D-08  .288096108355D+01
     .494346022606D-05  .583706737962D-02  .593811273575D-05  .515368551445D+04
     .446400000000D+06  .298023223877D-07  .108266997088D+01 -.521540641785D-07
     .927907636129D+00  .247687500000D+03 -.200964020860D+01 -.845070914881D-08
     .457161899771D-09  .100000000000D+01  .168000000000D+04  .000000000000D+00
     .240000000000D+01  .000000000000D+00 -.167638063431D-07  .510000000000D+02
     .439206000000D+06  .400000000000D+01
23 12  3 23  4  0  0.0  .221745111048D-03 -.352429196937D-11  .000000000000D+00
     .150000000000D+02 -.602812500000D+02  .476948438245D-08  .996395723036D+00
    -.308454036713D-05  .764076772612D-02  .360794365406D-05  .515365472031D+04
     .446400000000D+06  .130385160446D-07  .212983396322D+01  .126659870148D-06
     .960624606694D+00  .309343750000D+03 -.302761803290D+01 -.842713673836D-08
    -.313584490624D-09  .100000000000D+01  .168000000000D+04  .000000000000D+00
     .240000000000D+01  .000000000000D+00 -.200234353542D-07  .150000000000D+02
     .439206000000D+06  .400000000000D+01
25 12  3 23  4  0  0.0  .324202701449D-04  .227373675443D-12  .000000000000D+00
     .750000000000D+02  .607187500000D+02  .464876506830D-08 -.192925342629D+01
     .315532088280D-05  .140673317946D-02  .740773975849D-05  .515373698616D+04
     .446400000000D+06  .521540641785D-07 -.208314887089D+01 -.242143869400D-07
     .967652589494D+00  .241468750000D+03  .601798696771D+00 -.810926635492D-08
     .564666377764D-09  .100000000000D+01  .168000000000D+04  .000000000000D+00
     .240000000000D+01  .000000000000D+00  .558793544769D-08  .750000000000D+02
     .439206000000D+06  .400000000000D+01
26 12  3 23  4  0  0.0 -.195862259716D-03 -.557065504836D-10  .000000000000D+00
     .490000000000D+02 -.659375000000D+02  .437982529445D-08  .857790663087D+00
    -.354088842869D-05  .209352785023D-01  .510178506374D-05  .515365286064D+04
     .446400000000D+06 -.271946191788D-06  .220119299321D+01  .502914190292D-07
     .983763012878D+00  .298468750000D+03  .117970984310D+01 -.847642450568D-08
    -.481448625696D-09  .100000000000D+01  .168000000000D+04  .000000000000D+00
     .240000000000D+01  .000000000000D+00 -.605359673500D-08  .490000000000D+02
     .439206000000D+06  .400000000000D+01
27 12  3 23  4  0  0.0  .369659159333D-03  .397903932026D-11  .000000000000D+00
     .430000000000D+02 -.631250000000D+02  .379051503302D-08  .179299705206D+01
    -.326335430145D-05  .218222471885D-01  .120308250189D-04  .515376117134D+04
     .446400000000D+06  .437721610069D-06  .312490116939D+01  .186264514923D-08
     .982292664638D+00  .154468750000D+03 -.110679124735D+01 -.735137764296D-08
    -.200722646618D-09  .100000000000D+01  .168000000000D+04  .000000000000D+00
     .240000000000D+01  .000000000000D+00 -.419095158577D-08  .430000000000D+02
     .439206000000D+06  .400000000000D+01
28 12  3 23  4  0  0.0  .125480350107D-03  .409272615798D-11  .000000000000D+00
     .880000000000D+02  .680625000000D+02  .433839499728D-08  .281631726740D+01
     .339001417160D-05  .178714690264D-01  .628829002380D-05  .515370598793D+04
     .446400000000D+06  .165775418282D-06 -.202489443723D+01 -.180676579475D-06
     .977979954345D+00  .263625000000D+03 -.183157598950D+01 -.772782189480D-08
     .430375069706D-09  .100000000000D+01  .168000000000D+04  .000000000000D+00
     .340000000000D+01  .000000000000D+00 -.107102096081D-07  .880000000000D+02
     .439206000000D+06  .400000000000D+01
29 12  3 23  4  0  0.0  .296327751130D-03  .363797880709D-11  .000000000000D+00
     .730000000000D+02 -.499687500000D+02  .487948896459D-08 -.124618372734D+01
    -.262074172497D-05  .231222005095D-02  .498816370964D-05  .515360686302D+04
     .446400000000D+06 -.596046447754D-07 -.981777537535D+00 -.204890966415D-07
     .962917255334D+00  .281218750000D+03 -.117759833005D+01 -.835713382245D-08
    -.447161483213D-09  .100000000000D+01  .168000000000D+04  .000000000000D+00
     .340000000000D+01  .000000000000D+00 -.931322574615D-08  .730000000000D+02
     .439206000000D+06  .400000000000D+01
30 12  3 23  4  0  0.0 -.958521850407D-04 -.161435309565D-10  .000000000000D+00
     .115000000000D+03  .597500000000D+02  .472983987396D-08  .210268972307D+01
     .299140810966D-05  .109179181745D-01  .813975930214D-05  .515362789536D+04
     .446400000000D+06  .141561031342D-06 -.217344611858D+01 -.165775418282D-06
     .958976860618D+00  .219875000000D+03  .155526900939D+01 -.796604610351D-08
     .495377777330D-09  .100000000000D+01  .168000000000D+04  .000000000000D+00
     .240000000000D+02  .000000000000D+00 -.419095158577D-08  .115000000000D+03
     .439206000000D+06  .400000000000D+01
